start=new Date('2022-03-14T00:00:00.000Z').valueOf();
sats=[{"BSTAR":"-0.00008123600000","REF_FRAME":"TEME","PERIOD":"95.592","MEAN_ANOMALY":"311.5265","CENTER_NAME":"EARTH","MEAN_ELEMENT_THEORY":"SGP4","APOAPSIS":"548.375","GP_ID":"198647592","SEMIMAJOR_AXIS":"6925.357","REV_AT_EPOCH":"12047","TLE_LINE1":"1 44941U 20001AD  22072.36011172 -.00001491  00000-0 -81236-4 0  9990","RCS_SIZE":"LARGE","OBJECT_TYPE":"PAYLOAD","OBJECT_ID":"2020-001AD","INCLINATION":"53.0563","COUNTRY_CODE":"US","NORAD_CAT_ID":"44941","DECAY_DATE":null,"MEAN_MOTION_DDOT":"0.0000000000000","MEAN_MOTION":"15.06397137","TIME_SYSTEM":"UTC","ELEMENT_SET_NO":"999","EPOCH":"2022-03-13T08:38:33.652608","FILE":"3357855","SITE":"AFETR","TLE_LINE2":"2 44941  53.0563  28.8243 0001665  48.5867 311.5265 15.06397137120478","LAUNCH_DATE":"2020-01-07","RA_OF_ASC_NODE":"28.8243","PERIAPSIS":"546.069","ARG_OF_PERICENTER":"48.5867","ECCENTRICITY":"0.00016650","EPHEMERIS_TYPE":"0","CLASSIFICATION_TYPE":"U","OBJECT_NAME":"STARLINK-1094","MEAN_MOTION_DOT":"-0.00001491"},{"ARG_OF_PERICENTER":"63.1944","RA_OF_ASC_NODE":"26.5051","PERIAPSIS":"546.002","TLE_LINE2":"2 44942  53.0550  26.5051 0001780  63.1944 296.9227 15.06393193120555","SITE":"AFETR","LAUNCH_DATE":"2020-01-07","EPOCH":"2022-03-13T21:01:38.121888","FILE":"3358388","ELEMENT_SET_NO":"999","MEAN_MOTION":"15.06393193","TIME_SYSTEM":"UTC","OBJECT_NAME":"STARLINK-1096","MEAN_MOTION_DOT":"-0.00002305","CLASSIFICATION_TYPE":"U","EPHEMERIS_TYPE":"0","ECCENTRICITY":"0.00017800","GP_ID":"198686018","SEMIMAJOR_AXIS":"6925.369","TLE_LINE1":"1 44942U 20001AE  22072.87613567 -.00002305  00000-0 -13590-3 0  9995","REV_AT_EPOCH":"12055","APOAPSIS":"548.467","MEAN_ELEMENT_THEORY":"SGP4","CENTER_NAME":"EARTH","BSTAR":"-0.00013590000000","PERIOD":"95.593","MEAN_ANOMALY":"296.9227","REF_FRAME":"TEME","NORAD_CAT_ID":"44942","MEAN_MOTION_DDOT":"0.0000000000000","DECAY_DATE":null,"COUNTRY_CODE":"US","INCLINATION":"53.0550","OBJECT_ID":"2020-001AE","OBJECT_TYPE":"PAYLOAD","RCS_SIZE":"LARGE"},{"MEAN_MOTION_DDOT":"0.0000000000000","DECAY_DATE":null,"NORAD_CAT_ID":"44943","INCLINATION":"53.0552","COUNTRY_CODE":"US","OBJECT_ID":"2020-001AF","RCS_SIZE":"LARGE","OBJECT_TYPE":"PAYLOAD","REV_AT_EPOCH":"12054","TLE_LINE1":"1 44943U 20001AF  22072.85401924 -.00001257  00000-0 -65524-4 0  9996","GP_ID":"198685766","SEMIMAJOR_AXIS":"6925.352","MEAN_ELEMENT_THEORY":"SGP4","CENTER_NAME":"EARTH","APOAPSIS":"548.389","REF_FRAME":"TEME","PERIOD":"95.592","MEAN_ANOMALY":"297.9124","BSTAR":"-0.00006552400000","MEAN_MOTION_DOT":"-0.00001257","OBJECT_NAME":"STARLINK-1100","CLASSIFICATION_TYPE":"U","EPHEMERIS_TYPE":"0","ECCENTRICITY":"0.00016930","RA_OF_ASC_NODE":"26.6097","PERIAPSIS":"546.045","ARG_OF_PERICENTER":"62.2037","LAUNCH_DATE":"2020-01-07","SITE":"AFETR","TLE_LINE2":"2 44943  53.0552  26.6097 0001693  62.2037 297.9124 15.06398881120540","ELEMENT_SET_NO":"999","FILE":"3358388","EPOCH":"2022-03-13T20:29:47.262336","TIME_SYSTEM":"UTC","MEAN_MOTION":"15.06398881"},{"EPHEMERIS_TYPE":"0","ECCENTRICITY":"0.00016270","MEAN_MOTION_DOT":"-0.00000678","OBJECT_NAME":"STARLINK-1108","CLASSIFICATION_TYPE":"U","FILE":"3358388","EPOCH":"2022-03-13T21:38:47.484672","ELEMENT_SET_NO":"999","TIME_SYSTEM":"UTC","MEAN_MOTION":"15.06397662","ARG_OF_PERICENTER":"55.7648","RA_OF_ASC_NODE":"26.3914","PERIAPSIS":"546.094","LAUNCH_DATE":"2020-01-07","TLE_LINE2":"2 44944  53.0563  26.3914 0001627  55.7648 304.3495 15.06397662120551","SITE":"AFETR","OBJECT_ID":"2020-001AG","OBJECT_TYPE":"PAYLOAD","RCS_SIZE":"LARGE","DECAY_DATE":null,"MEAN_MOTION_DDOT":"0.0000000000000","NORAD_CAT_ID":"44944","COUNTRY_CODE":"US","INCLINATION":"53.0563","APOAPSIS":"548.347","MEAN_ELEMENT_THEORY":"SGP4","CENTER_NAME":"EARTH","PERIOD":"95.592","MEAN_ANOMALY":"304.3495","REF_FRAME":"TEME","BSTAR":"-0.00002661000000","TLE_LINE1":"1 44944U 20001AG  22072.90193848 -.00000678  00000-0 -26610-4 0  9995","REV_AT_EPOCH":"12055","SEMIMAJOR_AXIS":"6925.356","GP_ID":"198686513"},{"MEAN_MOTION":"15.06393502","TIME_SYSTEM":"UTC","FILE":"3358388","EPOCH":"2022-03-13T20:45:42.394464","ELEMENT_SET_NO":"999","TLE_LINE2":"2 44945  53.0548  26.5506 0001795  62.2522 297.8649 15.06393502120549","SITE":"AFETR","LAUNCH_DATE":"2020-01-07","ARG_OF_PERICENTER":"62.2522","PERIAPSIS":"545.990","RA_OF_ASC_NODE":"26.5506","ECCENTRICITY":"0.00017950","EPHEMERIS_TYPE":"0","CLASSIFICATION_TYPE":"U","OBJECT_NAME":"STARLINK-1109","MEAN_MOTION_DOT":"-0.00001086","BSTAR":"-0.00005400100000","PERIOD":"95.593","MEAN_ANOMALY":"297.8649","REF_FRAME":"TEME","APOAPSIS":"548.477","CENTER_NAME":"EARTH","MEAN_ELEMENT_THEORY":"SGP4","SEMIMAJOR_AXIS":"6925.368","GP_ID":"198687261","TLE_LINE1":"1 44945U 20001AH  22072.86507401 -.00001086  00000-0 -54001-4 0  9994","REV_AT_EPOCH":"12054","OBJECT_TYPE":"PAYLOAD","RCS_SIZE":"LARGE","OBJECT_ID":"2020-001AH","COUNTRY_CODE":"US","INCLINATION":"53.0548","NORAD_CAT_ID":"44945","MEAN_MOTION_DDOT":"0.0000000000000","DECAY_DATE":null},{"RCS_SIZE":"LARGE","OBJECT_TYPE":"PAYLOAD","OBJECT_ID":"2020-001AJ","COUNTRY_CODE":"US","INCLINATION":"53.0060","DECAY_DATE":null,"MEAN_MOTION_DDOT":"0.0000000000000","NORAD_CAT_ID":"44946","MEAN_ANOMALY":"296.0060","PERIOD":"95.321","REF_FRAME":"TEME","BSTAR":"0.00160290000000","APOAPSIS":"534.481","MEAN_ELEMENT_THEORY":"SGP4","CENTER_NAME":"EARTH","REV_AT_EPOCH":"12062","TLE_LINE1":"1 44946U 20001AJ  22072.86943800  .00026644  00000-0  16029-2 0  9993","GP_ID":"198685518","SEMIMAJOR_AXIS":"6912.269","ECCENTRICITY":"0.00005020","EPHEMERIS_TYPE":"0","CLASSIFICATION_TYPE":"U","MEAN_MOTION_DOT":"0.00026644","OBJECT_NAME":"STARLINK-1110","TIME_SYSTEM":"UTC","MEAN_MOTION":"15.10677631","FILE":"3358388","EPOCH":"2022-03-13T20:51:59.443200","ELEMENT_SET_NO":"999","LAUNCH_DATE":"2020-01-07","TLE_LINE2":"2 44946  53.0060  19.1776 0000502  64.0982 296.0060 15.10677631120621","SITE":"AFETR","ARG_OF_PERICENTER":"64.0982","RA_OF_ASC_NODE":"19.1776","PERIAPSIS":"533.787"},{"ECCENTRICITY":"0.00018070","EPHEMERIS_TYPE":"0","CLASSIFICATION_TYPE":"U","OBJECT_NAME":"STARLINK-1116","MEAN_MOTION_DOT":"-0.00004372","MEAN_MOTION":"15.06405232","TIME_SYSTEM":"UTC","EPOCH":"2022-03-13T08:33:14.480640","FILE":"3357855","ELEMENT_SET_NO":"999","TLE_LINE2":"2 44947  53.0556  28.8308 0001807  48.9784 311.1361 15.06405232120477","SITE":"AFETR","LAUNCH_DATE":"2020-01-07","ARG_OF_PERICENTER":"48.9784","RA_OF_ASC_NODE":"28.8308","PERIAPSIS":"545.946","RCS_SIZE":"LARGE","OBJECT_TYPE":"PAYLOAD","OBJECT_ID":"2020-001AK","COUNTRY_CODE":"US","INCLINATION":"53.0556","NORAD_CAT_ID":"44947","DECAY_DATE":null,"MEAN_MOTION_DDOT":"0.0000000000000","BSTAR":"-0.00027475000000","MEAN_ANOMALY":"311.1361","PERIOD":"95.592","REF_FRAME":"TEME","APOAPSIS":"548.449","MEAN_ELEMENT_THEORY":"SGP4","CENTER_NAME":"EARTH","GP_ID":"198649094","SEMIMAJOR_AXIS":"6925.333","REV_AT_EPOCH":"12047","TLE_LINE1":"1 44947U 20001AK  22072.35641760 -.00004372  00000-0 -27475-3 0  9992"},{"DECAY_DATE":null,"MEAN_MOTION_DDOT":"0.0000000000000","NORAD_CAT_ID":"44949","COUNTRY_CODE":"US","INCLINATION":"53.0554","OBJECT_ID":"2020-001AM","RCS_SIZE":"LARGE","OBJECT_TYPE":"PAYLOAD","REV_AT_EPOCH":"12054","TLE_LINE1":"1 44949U 20001AM  22072.84664738 -.00002188  00000-0 -12801-3 0  9998","GP_ID":"198687014","SEMIMAJOR_AXIS":"6925.351","APOAPSIS":"548.299","MEAN_ELEMENT_THEORY":"SGP4","CENTER_NAME":"EARTH","MEAN_ANOMALY":"302.7531","PERIOD":"95.592","REF_FRAME":"TEME","BSTAR":"-0.00012801000000","MEAN_MOTION_DOT":"-0.00002188","OBJECT_NAME":"STARLINK-1122","CLASSIFICATION_TYPE":"U","EPHEMERIS_TYPE":"0","ECCENTRICITY":"0.00015640","ARG_OF_PERICENTER":"57.3609","RA_OF_ASC_NODE":"26.6449","PERIAPSIS":"546.133","LAUNCH_DATE":"2020-01-07","TLE_LINE2":"2 44949  53.0554  26.6449 0001564  57.3609 302.7531 15.06399128120548","SITE":"AFETR","EPOCH":"2022-03-13T20:19:10.333632","FILE":"3358388","ELEMENT_SET_NO":"999","TIME_SYSTEM":"UTC","MEAN_MOTION":"15.06399128"},{"CLASSIFICATION_TYPE":"U","OBJECT_NAME":"STARLINK-1125","MEAN_MOTION_DOT":"0.00014944","ECCENTRICITY":"0.00017260","EPHEMERIS_TYPE":"0","TLE_LINE2":"2 44950  53.0539  26.5701 0001726  63.8637 296.2530 15.06454696120544","SITE":"AFETR","LAUNCH_DATE":"2020-01-07","ARG_OF_PERICENTER":"63.8637","PERIAPSIS":"545.851","RA_OF_ASC_NODE":"26.5701","MEAN_MOTION":"15.06454696","TIME_SYSTEM":"UTC","EPOCH":"2022-03-13T20:40:20.121600","FILE":"3358388","ELEMENT_SET_NO":"999","COUNTRY_CODE":"US","INCLINATION":"53.0539","NORAD_CAT_ID":"44950","DECAY_DATE":null,"MEAN_MOTION_DDOT":"0.0000000000000","RCS_SIZE":"LARGE","OBJECT_TYPE":"PAYLOAD","OBJECT_ID":"2020-001AN","GP_ID":"198686761","SEMIMAJOR_AXIS":"6925.181","TLE_LINE1":"1 44950U 20001AN  22072.86134400  .00014944  00000-0  10185-2 0  9993","REV_AT_EPOCH":"12054","BSTAR":"0.00101850000000","PERIOD":"95.589","MEAN_ANOMALY":"296.2530","REF_FRAME":"TEME","APOAPSIS":"548.241","MEAN_ELEMENT_THEORY":"SGP4","CENTER_NAME":"EARTH"},{"OBJECT_ID":"2020-001AP","OBJECT_TYPE":"PAYLOAD","RCS_SIZE":"LARGE","MEAN_MOTION_DDOT":"0.0000000000000","DECAY_DATE":null,"NORAD_CAT_ID":"44951","COUNTRY_CODE":"US","INCLINATION":"53.0050","APOAPSIS":"534.858","MEAN_ELEMENT_THEORY":"SGP4","CENTER_NAME":"EARTH","MEAN_ANOMALY":"272.1283","PERIOD":"95.332","REF_FRAME":"TEME","BSTAR":"0.00153100000000","TLE_LINE1":"1 44951U 20001AP  22072.88288310  .00025316  00000-0  15310-2 0  9996","REV_AT_EPOCH":"12190","SEMIMAJOR_AXIS":"6912.767","GP_ID":"198686019","EPHEMERIS_TYPE":"0","ECCENTRICITY":"0.00003270","MEAN_MOTION_DOT":"0.00025316","OBJECT_NAME":"STARLINK-1126","CLASSIFICATION_TYPE":"U","EPOCH":"2022-03-13T21:11:21.099840","FILE":"3358388","ELEMENT_SET_NO":"999","TIME_SYSTEM":"UTC","MEAN_MOTION":"15.10514539","ARG_OF_PERICENTER":"87.9744","RA_OF_ASC_NODE":"19.8001","PERIAPSIS":"534.406","LAUNCH_DATE":"2020-01-07","TLE_LINE2":"2 44951  53.0050  19.8001 0000327  87.9744 272.1283 15.10514539121900","SITE":"AFETR"}];
